[{"OBJECT_NAME":"STARLINK-4479","OBJECT_ID":"2022-097AD","EPOCH":"2026-03-09T10:13:49.670976","MEAN_MOTION":15.08837701,"ECCENTRICITY":0.00012115,"INCLINATION":53.2166,"RA_OF_ASC_NODE":115.3015,"ARG_OF_PERICENTER":83.4144,"MEAN_ANOMALY":276.6986,"EPHEMERIS_TYPE":0,"CLASSIFICATION_TYPE":"U","NORAD_CAT_ID":53415,"ELEMENT_SET_NO":999,"REV_AT_EPOCH":19858,"BSTAR":-5.5055297e-5,"MEAN_MOTION_DOT":-1.164e-5,"MEAN_MOTION_DDOT":0},{"OBJECT_NAME":"CZ-4B DEB","OBJECT_ID":"2008-053L","EPOCH":"2026-03-08T19:52:33.417984","MEAN_MOTION":15.09778257,"ECCENTRICITY":0.00077037,"INCLINATION":97.7892,"RA_OF_ASC_NODE":87.441,"ARG_OF_PERICENTER":237.5543,"MEAN_ANOMALY":122.4941,"EPHEMERIS_TYPE":0,"CLASSIFICATION_TYPE":"U","NORAD_CAT_ID":36290,"ELEMENT_SET_NO":999,"REV_AT_EPOCH":71411,"BSTAR":0.00021001,"MEAN_MOTION_DOT":3.326e-5,"MEAN_MOTION_DDOT":0}]
